[{"OBJECT_NAME":"STARLINK-30258","OBJECT_ID":"2023-119G","EPOCH":"2026-03-09T22:00:01.999584","MEAN_MOTION":15.1321438,"ECCENTRICITY":0.00015657,"INCLINATION":43.0009,"RA_OF_ASC_NODE":80.0826,"ARG_OF_PERICENTER":276.5997,"MEAN_ANOMALY":78.2853,"EPHEMERIS_TYPE":0,"CLASSIFICATION_TYPE":"U","NORAD_CAT_ID":57608,"ELEMENT_SET_NO":999,"REV_AT_EPOCH":578,"BSTAR":0.041208095,"MEAN_MOTION_DOT":0.0079779,"MEAN_MOTION_DDOT":0},{"OBJECT_NAME":"SEMI-1P","OBJECT_ID":"2025-248F","EPOCH":"2026-03-08T23:35:30.055200","MEAN_MOTION":15.20583753,"ECCENTRICITY":0.00103031,"INCLINATION":45.4089,"RA_OF_ASC_NODE":297.1314,"ARG_OF_PERICENTER":192.9316,"MEAN_ANOMALY":167.1308,"EPHEMERIS_TYPE":0,"CLASSIFICATION_TYPE":"U","NORAD_CAT_ID":66298,"ELEMENT_SET_NO":999,"REV_AT_EPOCH":1928,"BSTAR":0.00024112625,"MEAN_MOTION_DOT":5.101e-5,"MEAN_MOTION_DDOT":0}]
